IRIDIUM 155             
1 43573U 18061E   21357.62072428  .00000160  00000+0  50137-4 0  9993
2 43573  86.3967  20.6349 0001823  84.2671 275.8732 14.34219343178788
IRIDIUM 154             
1 43574U 18061F   21357.60169850  .00000155  00000+0  48246-4 0  9990
2 43574  86.3970  20.6980 0002447  92.0635 268.0841 14.34217372178835
IRIDIUM 163             
1 43575U 18061G   21357.72219326  .00000150  00000+0  46357-4 0  9994
2 43575  86.3970  20.6126 0002244 101.4343 258.7105 14.34216860178823
IRIDIUM 156             
1 43576U 18061H   21357.62706839  .00000157  00000+0  49058-4 0  9992
2 43576  86.3968  20.6581 0001883  97.3633 262.7777 14.34220514178808
IRIDIUM 164             
1 43577U 18061J   21357.60803206  .00000154  00000+0  47854-4 0  9996
2 43577  86.3968  20.6815 0002380  94.9201 265.2267 14.34214738178843
IRIDIUM 159             
1 43578U 18061K   21357.57631974  .00000147  00000+0  45401-4 0  9992
2 43578  86.3969  20.6660 0002374  93.2929 266.8538 14.34215124178809
IRIDIUM 180             
1 43922U 19002A   21357.92466689  .00000159  00000+0  49572-4 0  9995
2 43922  86.3964 317.3876 0002927  95.9684 264.1846 14.34221203154467
IRIDIUM 176             
1 43923U 19002B   21357.90445937  .00000505  00000+0  76185-4 0  9992
2 43923  86.6098 317.4307 0002433  83.1312 277.0182 14.72258921158502
IRIDIUM 168             
1 43924U 19002C   21357.91831765  .00000153  00000+0  47622-4 0  9995
2 43924  86.3966 317.4213 0002421  87.1828 272.9645 14.34220582154440
IRIDIUM 173             
1 43925U 19002D   21357.90563462  .00000161  00000+0  50432-4 0  9993
2 43925  86.3962 317.3822 0002339  89.1263 271.0201 14.34220071154424
IRIDIUM 169             
1 43926U 19002E   21357.53536775  .00000183  00000+0  53407-4 0  9999
2 43926  86.4222 349.1393 0004260 357.5810   2.5367 14.38614846154922
IRIDIUM 172             
1 43927U 19002F   21357.89928989  .00000161  00000+0  50488-4 0  9993
2 43927  86.3963 317.3876 0002429  89.7625 270.3849 14.34221388154437
IRIDIUM 175             
1 43928U 19002G   21357.89824843  .00000495  00000+0  74633-4 0  9996
2 43928  86.6100 317.2585 0002670  95.9212 264.2309 14.72258516158497
IRIDIUM 171             
1 43929U 19002H   21357.88026617  .00000031  00000+0  38804-5 0  9996
2 43929  86.3973 317.5204 0002431  86.5933 273.5541 14.34215770154428
IRIDIUM 170             
1 43930U 19002J   21357.91066354  .00000496  00000+0  74818-4 0  9993
2 43930  86.6098 317.4340 0002594  88.8061 271.3454 14.72258383158510
IRIDIUM 167             
1 43931U 19002K   21357.87392971  .00000162  00000+0  50603-4 0  9992
2 43931  86.3964 317.4064 0002747  92.3452 267.8058 14.34218779154426
